*******************************************************************************
Ephemeris / WWW_USER Mon Mar 24 09:06:12 2025 Pasadena, USA      / Horizons    
*******************************************************************************
Target body name: Lemmon (C/2018 EF9)             {source: JPL#18}
Center body name: Earth (399)                     {source: DE441}
Center-site name: Mauna Kea
*******************************************************************************
Start time      : A.D. 2019-Jan-05 04:06:00.0000 UT      
Stop  time      : A.D. 2019-Jan-05 16:47:00.0000 UT      
Step-size       : 1 minutes
*******************************************************************************
Target pole/equ : undefined
Target radii    : undefined                                                    
Center geodetic : 204.5278, 19.8260847, 4.21024   {E-lon(deg),Lat(deg),Alt(km)}
Center cylindric: 204.5278, 6006.35451, 2151.0229 {E-lon(deg),Dxy(km),Dz(km)}
Center pole/equ : ITRF93                          {East-longitude positive}
Center radii    : 6378.137, 6378.137, 6356.752 km {Equator_a, b, pole_c}       
Target primary  : Sun
Vis. interferer : MOON (R_eq= 1737.400) km        {source: DE441}
Rel. light bend : Sun                             {source: DE441}
Rel. lght bnd GM: 1.3271E+11 km^3/s^2                                          
Small-body perts: Yes                             {source: SB441-N16}
Atmos refraction: NO (AIRLESS)
RA format       : HMS
Time format     : CAL 
Calendar mode   : Mixed Julian/Gregorian
RTS-only print  : NO       
EOP file        : eop.250321.p250617                                           
EOP coverage    : DATA-BASED 1962-JAN-20 TO 2025-MAR-21. PREDICTS-> 2025-JUN-16
Units conversion: 1 au= 149597870.700 km, c= 299792.458 km/s, 1 day= 86400.0 s 
Table cut-offs 1: Elevation (-90.0deg=NO ),Airmass (>38.000=NO), Daylight (YES)
Table cut-offs 2: Solar elongation (  0.0,180.0=NO ),Local Hour Angle( 0.0=NO )
Table cut-offs 3: RA/DEC angular rate (     0.0=NO )                           
*******************************************************************************
Initial IAU76/J2000 heliocentric ecliptic osculating elements (au, days, deg.):
  EPOCH=  2458226.5 ! 2018-Apr-18.0000000 (TDB)    RMSW= n.a.                  
   EC= .9975741722198472   QR= 1.55663257903246    TP= 2458261.6283815675      
   OM= 172.5780664128357   W= 72.61657512148747    IN= 84.69445280104227       
  Equivalent ICRF heliocentric cartesian coordinates (au, au/d):
   X=-1.091857230976521E+00  Y=-4.544188696153424E-01  Z= 1.120998862172552E+00
  VX= 1.630642470498751E-02 VY=-6.481787118028984E-03 VZ= 7.403953065693920E-03
Comet physical (GM= km^3/s^2; RAD= km):                                        
   GM= n.a.                RAD= n.a.                                           
   M1=  8.6      M2=  17.8     k1=  45.25  k2=  5.      PHCOF=  .030           
*******************************************************************************
 Date__(UT)__HR:MN     R.A._________(ICRF)_________DEC
******************************************************
$$SOE
 2019-Jan-05 10:21     22 15 19.481155 +02 57 13.55753
 2019-Jan-05 10:22     22 15 19.527162 +02 57 13.33592
 2019-Jan-05 10:23     22 15 19.573170 +02 57 13.11432
 2019-Jan-05 10:24     22 15 19.619181 +02 57 12.89273
 2019-Jan-05 10:25     22 15 19.665194 +02 57 12.67114
 2019-Jan-05 10:26     22 15 19.711209 +02 57 12.44956
 2019-Jan-05 10:27     22 15 19.757227 +02 57 12.22799
 2019-Jan-05 10:28     22 15 19.803246 +02 57 12.00642
 2019-Jan-05 10:29     22 15 19.849267 +02 57 11.78486
 2019-Jan-05 10:30     22 15 19.895290 +02 57 11.56331
 2019-Jan-05 10:31     22 15 19.941316 +02 57 11.34176
 2019-Jan-05 10:32     22 15 19.987343 +02 57 11.12022
 2019-Jan-05 10:33     22 15 20.033373 +02 57 10.89868
 2019-Jan-05 10:34     22 15 20.079404 +02 57 10.67716
 2019-Jan-05 10:35     22 15 20.125438 +02 57 10.45564
 2019-Jan-05 10:36     22 15 20.171473 +02 57 10.23412
 2019-Jan-05 10:37     22 15 20.217511 +02 57 10.01261
 2019-Jan-05 10:38     22 15 20.263550 +02 57 09.79111
 2019-Jan-05 10:39     22 15 20.309591 +02 57 09.56962
 2019-Jan-05 10:40     22 15 20.355635 +02 57 09.34813
 2019-Jan-05 10:41     22 15 20.401680 +02 57 09.12665
 2019-Jan-05 10:42     22 15 20.447727 +02 57 08.90517
 2019-Jan-05 10:43     22 15 20.493777 +02 57 08.68371
 2019-Jan-05 10:44     22 15 20.539828 +02 57 08.46224
 2019-Jan-05 10:45     22 15 20.585881 +02 57 08.24079
 2019-Jan-05 10:46     22 15 20.631936 +02 57 08.01934
 2019-Jan-05 10:47     22 15 20.677993 +02 57 07.79790
 2019-Jan-05 10:48     22 15 20.724052 +02 57 07.57647
 2019-Jan-05 10:49     22 15 20.770112 +02 57 07.35504
 2019-Jan-05 10:50     22 15 20.816175 +02 57 07.13362
 2019-Jan-05 10:51     22 15 20.862239 +02 57 06.91220
 2019-Jan-05 10:52     22 15 20.908306 +02 57 06.69080
 2019-Jan-05 10:53     22 15 20.954374 +02 57 06.46940
 2019-Jan-05 10:54     22 15 21.000444 +02 57 06.24800
 2019-Jan-05 10:55     22 15 21.046516 +02 57 06.02662
 2019-Jan-05 10:56     22 15 21.092589 +02 57 05.80524
 2019-Jan-05 10:57     22 15 21.138665 +02 57 05.58386
 2019-Jan-05 10:58     22 15 21.184742 +02 57 05.36249
 2019-Jan-05 10:59     22 15 21.230821 +02 57 05.14113
 2019-Jan-05 11:00     22 15 21.276902 +02 57 04.91978
 2019-Jan-05 11:01     22 15 21.322985 +02 57 04.69844
 2019-Jan-05 11:02     22 15 21.369069 +02 57 04.47710
 2019-Jan-05 11:03     22 15 21.415155 +02 57 04.25576
 2019-Jan-05 11:04     22 15 21.461243 +02 57 04.03444
 2019-Jan-05 11:05     22 15 21.507333 +02 57 03.81312
 2019-Jan-05 11:06     22 15 21.553424 +02 57 03.59181
 2019-Jan-05 11:07     22 15 21.599517 +02 57 03.37050
 2019-Jan-05 11:08     22 15 21.645612 +02 57 03.14920
 2019-Jan-05 11:09     22 15 21.691709 +02 57 02.92791
 2019-Jan-05 11:10     22 15 21.737807 +02 57 02.70662
 2019-Jan-05 11:11     22 15 21.783907 +02 57 02.48535
 2019-Jan-05 11:12     22 15 21.830008 +02 57 02.26408
 2019-Jan-05 11:13     22 15 21.876111 +02 57 02.04281
 2019-Jan-05 11:14     22 15 21.922216 +02 57 01.82155
 2019-Jan-05 11:15     22 15 21.968323 +02 57 01.60030
 2019-Jan-05 11:16     22 15 22.014431 +02 57 01.37906
 2019-Jan-05 11:17     22 15 22.060540 +02 57 01.15782
 2019-Jan-05 11:18     22 15 22.106652 +02 57 00.93659
 2019-Jan-05 11:19     22 15 22.152765 +02 57 00.71537
 2019-Jan-05 11:20     22 15 22.198879 +02 57 00.49415
 2019-Jan-05 11:21     22 15 22.244995 +02 57 00.27294
 2019-Jan-05 11:22     22 15 22.291113 +02 57 00.05174
 2019-Jan-05 11:23     22 15 22.337232 +02 56 59.83055
 2019-Jan-05 11:24     22 15 22.383353 +02 56 59.60936
 2019-Jan-05 11:25     22 15 22.429475 +02 56 59.38818
 2019-Jan-05 11:26     22 15 22.475599 +02 56 59.16700
 2019-Jan-05 11:27     22 15 22.521724 +02 56 58.94583
 2019-Jan-05 11:28     22 15 22.567851 +02 56 58.72467
 2019-Jan-05 11:29     22 15 22.613980 +02 56 58.50352
 2019-Jan-05 11:30     22 15 22.660109 +02 56 58.28237
 2019-Jan-05 11:31     22 15 22.706241 +02 56 58.06123
 2019-Jan-05 11:32     22 15 22.752373 +02 56 57.84010
 2019-Jan-05 11:33     22 15 22.798508 +02 56 57.61898
 2019-Jan-05 11:34     22 15 22.844643 +02 56 57.39786
 2019-Jan-05 11:35     22 15 22.890780 +02 56 57.17675
 2019-Jan-05 11:36     22 15 22.936919 +02 56 56.95564
 2019-Jan-05 11:37     22 15 22.983059 +02 56 56.73454
 2019-Jan-05 11:38     22 15 23.029200 +02 56 56.51345
 2019-Jan-05 11:39     22 15 23.075343 +02 56 56.29237
 2019-Jan-05 11:40     22 15 23.121487 +02 56 56.07129
 2019-Jan-05 11:41     22 15 23.167633 +02 56 55.85022
 2019-Jan-05 11:42     22 15 23.213779 +02 56 55.62916
 2019-Jan-05 11:43     22 15 23.259928 +02 56 55.40810
 2019-Jan-05 11:44     22 15 23.306077 +02 56 55.18706
 2019-Jan-05 11:45     22 15 23.352228 +02 56 54.96601
 2019-Jan-05 11:46     22 15 23.398380 +02 56 54.74498
 2019-Jan-05 11:47     22 15 23.444534 +02 56 54.52395
 2019-Jan-05 11:48     22 15 23.490688 +02 56 54.30293
 2019-Jan-05 11:49     22 15 23.536844 +02 56 54.08192
 2019-Jan-05 11:50     22 15 23.583002 +02 56 53.86091
 2019-Jan-05 11:51     22 15 23.629160 +02 56 53.63991
 2019-Jan-05 11:52     22 15 23.675320 +02 56 53.41892
 2019-Jan-05 11:53     22 15 23.721481 +02 56 53.19794
 2019-Jan-05 11:54     22 15 23.767643 +02 56 52.97696
 2019-Jan-05 11:55     22 15 23.813807 +02 56 52.75599
 2019-Jan-05 11:56     22 15 23.859972 +02 56 52.53502
 2019-Jan-05 11:57     22 15 23.906138 +02 56 52.31407
 2019-Jan-05 11:58     22 15 23.952305 +02 56 52.09312
 2019-Jan-05 11:59     22 15 23.998473 +02 56 51.87217
 2019-Jan-05 12:00     22 15 24.044642 +02 56 51.65124
 2019-Jan-05 12:01     22 15 24.090813 +02 56 51.43031
 2019-Jan-05 12:02     22 15 24.136985 +02 56 51.20939
 2019-Jan-05 12:03     22 15 24.183158 +02 56 50.98847
 2019-Jan-05 12:04     22 15 24.229331 +02 56 50.76757
 2019-Jan-05 12:05     22 15 24.275507 +02 56 50.54667
 2019-Jan-05 12:06     22 15 24.321683 +02 56 50.32577
 2019-Jan-05 12:07     22 15 24.367860 +02 56 50.10489
 2019-Jan-05 12:08     22 15 24.414038 +02 56 49.88401
 2019-Jan-05 12:09     22 15 24.460218 +02 56 49.66314
 2019-Jan-05 12:10     22 15 24.506398 +02 56 49.44228
 2019-Jan-05 12:11     22 15 24.552579 +02 56 49.22142
 2019-Jan-05 12:12     22 15 24.598762 +02 56 49.00057
 2019-Jan-05 12:13     22 15 24.644945 +02 56 48.77973
 2019-Jan-05 12:14     22 15 24.691130 +02 56 48.55889
 2019-Jan-05 12:15     22 15 24.737315 +02 56 48.33806
 2019-Jan-05 12:16     22 15 24.783502 +02 56 48.11724
 2019-Jan-05 12:17     22 15 24.829689 +02 56 47.89643
 2019-Jan-05 12:18     22 15 24.875878 +02 56 47.67562
 2019-Jan-05 12:19     22 15 24.922067 +02 56 47.45482
 2019-Jan-05 12:20     22 15 24.968257 +02 56 47.23403
 2019-Jan-05 12:21     22 15 25.014448 +02 56 47.01324
 2019-Jan-05 12:22     22 15 25.060640 +02 56 46.79246
 2019-Jan-05 12:23     22 15 25.106833 +02 56 46.57169
 2019-Jan-05 12:24     22 15 25.153027 +02 56 46.35093
 2019-Jan-05 12:25     22 15 25.199222 +02 56 46.13017
